<?xml version="1.0" encoding="UTF-8"?>
<ndm xmlns:xsi="http://www.w3.org/2001/XMLSchema-instance" xsi:noNamespaceSchemaLocation="https://sanaregistry.org/r/ndmxml_unqualified/ndmxml-2.0.0-master-2.0.xsd">
<omm id="CCSDS_OMM_VERS" version="2.0">
<header><CREATION_DATE/><ORIGINATOR/></header><body><segment><metadata><OBJECT_NAME>EUTELSAT QUANTUM</OBJECT_NAME><OBJECT_ID>2021-069B</OBJECT_ID><CENTER_NAME>EARTH</CENTER_NAME><REF_FRAME>TEME</REF_FRAME><TIME_SYSTEM>UTC</TIME_SYSTEM><MEAN_ELEMENT_THEORY>SGP4</MEAN_ELEMENT_THEORY></metadata><data><meanElements><EPOCH>2025-11-07T19:38:38.762016</EPOCH><MEAN_MOTION>1.00270744</MEAN_MOTION><ECCENTRICITY>.0003182</ECCENTRICITY><INCLINATION>0.0446</INCLINATION><RA_OF_ASC_NODE>71.9137</RA_OF_ASC_NODE><ARG_OF_PERICENTER>174.5488</ARG_OF_PERICENTER><MEAN_ANOMALY>143.1822</MEAN_ANOMALY></meanElements><tleParameters><EPHEMERIS_TYPE>0</EPHEMERIS_TYPE><CLASSIFICATION_TYPE>U</CLASSIFICATION_TYPE><NORAD_CAT_ID>49056</NORAD_CAT_ID><ELEMENT_SET_NO>999</ELEMENT_SET_NO><REV_AT_EPOCH>1570</REV_AT_EPOCH><BSTAR>0</BSTAR><MEAN_MOTION_DOT>.13E-5</MEAN_MOTION_DOT><MEAN_MOTION_DDOT>0</MEAN_MOTION_DDOT></tleParameters></data></segment></body></omm>
<omm id="CCSDS_OMM_VERS" version="2.0">
<header><CREATION_DATE/><ORIGINATOR/></header><body><segment><metadata><OBJECT_NAME>EUTELSAT KONNECT VHTS</OBJECT_NAME><OBJECT_ID>2022-110A</OBJECT_ID><CENTER_NAME>EARTH</CENTER_NAME><REF_FRAME>TEME</REF_FRAME><TIME_SYSTEM>UTC</TIME_SYSTEM><MEAN_ELEMENT_THEORY>SGP4</MEAN_ELEMENT_THEORY></metadata><data><meanElements><EPOCH>2025-11-07T02:31:04.141920</EPOCH><MEAN_MOTION>1.00269799</MEAN_MOTION><ECCENTRICITY>.00027459</ECCENTRICITY><INCLINATION>0.0585</INCLINATION><RA_OF_ASC_NODE>93.2951</RA_OF_ASC_NODE><ARG_OF_PERICENTER>117.6998</ARG_OF_PERICENTER><MEAN_ANOMALY>236.0436</MEAN_ANOMALY></meanElements><tleParameters><EPHEMERIS_TYPE>0</EPHEMERIS_TYPE><CLASSIFICATION_TYPE>U</CLASSIFICATION_TYPE><NORAD_CAT_ID>53765</NORAD_CAT_ID><ELEMENT_SET_NO>999</ELEMENT_SET_NO><REV_AT_EPOCH>459</REV_AT_EPOCH><BSTAR>0</BSTAR><MEAN_MOTION_DOT>.24E-6</MEAN_MOTION_DOT><MEAN_MOTION_DDOT>0</MEAN_MOTION_DDOT></tleParameters></data></segment></body></omm>
<omm id="CCSDS_OMM_VERS" version="2.0">
<header><CREATION_DATE/><ORIGINATOR/></header><body><segment><metadata><OBJECT_NAME>EUTELSAT HOTBIRD 13F</OBJECT_NAME><OBJECT_ID>2022-134A</OBJECT_ID><CENTER_NAME>EARTH</CENTER_NAME><REF_FRAME>TEME</REF_FRAME><TIME_SYSTEM>UTC</TIME_SYSTEM><MEAN_ELEMENT_THEORY>SGP4</MEAN_ELEMENT_THEORY></metadata><data><meanElements><EPOCH>2025-11-07T02:33:56.367360</EPOCH><MEAN_MOTION>1.00270901</MEAN_MOTION><ECCENTRICITY>.00021332</ECCENTRICITY><INCLINATION>0.0519</INCLINATION><RA_OF_ASC_NODE>286.1645</RA_OF_ASC_NODE><ARG_OF_PERICENTER>66.9224</ARG_OF_PERICENTER><MEAN_ANOMALY>104.9714</MEAN_ANOMALY></meanElements><tleParameters><EPHEMERIS_TYPE>0</EPHEMERIS_TYPE><CLASSIFICATION_TYPE>U</CLASSIFICATION_TYPE><NORAD_CAT_ID>54048</NORAD_CAT_ID><ELEMENT_SET_NO>999</ELEMENT_SET_NO><REV_AT_EPOCH>1115</REV_AT_EPOCH><BSTAR>0</BSTAR><MEAN_MOTION_DOT>.94E-6</MEAN_MOTION_DOT><MEAN_MOTION_DDOT>0</MEAN_MOTION_DDOT></tleParameters></data></segment></body></omm>
<omm id="CCSDS_OMM_VERS" version="2.0">
<header><CREATION_DATE/><ORIGINATOR/></header><body><segment><metadata><OBJECT_NAME>EUTELSAT HOTBIRD 13G</OBJECT_NAME><OBJECT_ID>2022-146A</OBJECT_ID><CENTER_NAME>EARTH</CENTER_NAME><REF_FRAME>TEME</REF_FRAME><TIME_SYSTEM>UTC</TIME_SYSTEM><MEAN_ELEMENT_THEORY>SGP4</MEAN_ELEMENT_THEORY></metadata><data><meanElements><EPOCH>2025-11-07T16:15:58.940928</EPOCH><MEAN_MOTION>1.00272205</MEAN_MOTION><ECCENTRICITY>.0002019</ECCENTRICITY><INCLINATION>0.0451</INCLINATION><RA_OF_ASC_NODE>239.3740</RA_OF_ASC_NODE><ARG_OF_PERICENTER>308.6847</ARG_OF_PERICENTER><MEAN_ANOMALY>116.0706</MEAN_ANOMALY></meanElements><tleParameters><EPHEMERIS_TYPE>0</EPHEMERIS_TYPE><CLASSIFICATION_TYPE>U</CLASSIFICATION_TYPE><NORAD_CAT_ID>54225</NORAD_CAT_ID><ELEMENT_SET_NO>999</ELEMENT_SET_NO><REV_AT_EPOCH>524</REV_AT_EPOCH><BSTAR>0</BSTAR><MEAN_MOTION_DOT>.92E-6</MEAN_MOTION_DOT><MEAN_MOTION_DDOT>0</MEAN_MOTION_DDOT></tleParameters></data></segment></body></omm>
<omm id="CCSDS_OMM_VERS" version="2.0">
<header><CREATION_DATE/><ORIGINATOR/></header><body><segment><metadata><OBJECT_NAME>EUTELSAT 10B</OBJECT_NAME><OBJECT_ID>2022-157A</OBJECT_ID><CENTER_NAME>EARTH</CENTER_NAME><REF_FRAME>TEME</REF_FRAME><TIME_SYSTEM>UTC</TIME_SYSTEM><MEAN_ELEMENT_THEORY>SGP4</MEAN_ELEMENT_THEORY></metadata><data><meanElements><EPOCH>2025-11-07T12:49:26.232960</EPOCH><MEAN_MOTION>1.00263616</MEAN_MOTION><ECCENTRICITY>.0002017</ECCENTRICITY><INCLINATION>0.0588</INCLINATION><RA_OF_ASC_NODE>90.4248</RA_OF_ASC_NODE><ARG_OF_PERICENTER>79.1317</ARG_OF_PERICENTER><MEAN_ANOMALY>79.7996</MEAN_ANOMALY></meanElements><tleParameters><EPHEMERIS_TYPE>0</EPHEMERIS_TYPE><CLASSIFICATION_TYPE>U</CLASSIFICATION_TYPE><NORAD_CAT_ID>54259</NORAD_CAT_ID><ELEMENT_SET_NO>999</ELEMENT_SET_NO><REV_AT_EPOCH>1080</REV_AT_EPOCH><BSTAR>0</BSTAR><MEAN_MOTION_DOT>.73E-6</MEAN_MOTION_DOT><MEAN_MOTION_DDOT>0</MEAN_MOTION_DDOT></tleParameters></data></segment></body></omm>
<omm id="CCSDS_OMM_VERS" version="2.0">
<header><CREATION_DATE/><ORIGINATOR/></header><body><segment><metadata><OBJECT_NAME>EUTELSAT 36D</OBJECT_NAME><OBJECT_ID>2024-059A</OBJECT_ID><CENTER_NAME>EARTH</CENTER_NAME><REF_FRAME>TEME</REF_FRAME><TIME_SYSTEM>UTC</TIME_SYSTEM><MEAN_ELEMENT_THEORY>SGP4</MEAN_ELEMENT_THEORY></metadata><data><meanElements><EPOCH>2025-11-07T02:40:33.232800</EPOCH><MEAN_MOTION>1.00270485</MEAN_MOTION><ECCENTRICITY>.0000385</ECCENTRICITY><INCLINATION>0.0158</INCLINATION><RA_OF_ASC_NODE>281.4492</RA_OF_ASC_NODE><ARG_OF_PERICENTER>6.6834</ARG_OF_PERICENTER><MEAN_ANOMALY>194.4637</MEAN_ANOMALY></meanElements><tleParameters><EPHEMERIS_TYPE>0</EPHEMERIS_TYPE><CLASSIFICATION_TYPE>U</CLASSIFICATION_TYPE><NORAD_CAT_ID>59346</NORAD_CAT_ID><ELEMENT_SET_NO>999</ELEMENT_SET_NO><REV_AT_EPOCH>592</REV_AT_EPOCH><BSTAR>0</BSTAR><MEAN_MOTION_DOT>.163E-5</MEAN_MOTION_DOT><MEAN_MOTION_DDOT>0</MEAN_MOTION_DDOT></tleParameters></data></segment></body></omm>
</ndm>
