EUTELSAT QUANTUM        
1 49056U 21069B   25311.81850419  .00000130  00000+0  00000+0 0  9992
2 49056   0.0446  71.9137 0003182 174.5488 143.1822  1.00270744 15708
EUTELSAT KONNECT VHTS   
1 53765U 22110A   25311.10490905  .00000024  00000+0  00000+0 0  9996
2 53765   0.0585  93.2951 0002745 117.6998 236.0436  1.00269799  4599
EUTELSAT HOTBIRD 13F    
1 54048U 22134A   25311.10690240  .00000094  00000+0  00000+0 0  9998
2 54048   0.0519 286.1645 0002133  66.9224 104.9714  1.00270901 11152
EUTELSAT HOTBIRD 13G    
1 54225U 22146A   25311.67776552  .00000092  00000+0  00000+0 0  9999
2 54225   0.0451 239.3740 0002019 308.6847 116.0706  1.00272205  5247
EUTELSAT 10B            
1 54259U 22157A   25311.53433140  .00000073  00000+0  00000+0 0  9995
2 54259   0.0588  90.4248 0002017  79.1317  79.7996  1.00263616 10804
EUTELSAT 36D            
1 59346U 24059A   25311.11149575  .00000163  00000+0  00000+0 0  9990
2 59346   0.0158 281.4492 0000385   6.6834 194.4637  1.00270485  5923
